NORAD_CAT_ID,OBJECT_NAME,OBJECT_TYPE,EPOCH,MEAN_MOTION,ECCENTRICITY,INCLINATION,RA_OF_ASC_NODE,ARG_OF_PERICENTER,MEAN_ANOMALY,BSTAR,MEAN_MOTION_DOT,MEAN_MOTION_DDOT,TLE_LINE0,TLE_LINE1,TLE_LINE2,SEMIMAJOR_AXIS,PERIOD,APOGEE,PERIGEE,DECAYED
52671.0,STARLINK-4071,PAYLOAD,2024-08-10 03:44:41,15.0884263,0.0001375,53.2157,222.2812,97.7008,262.4141,4.3433e-05,4.03e-06,0.0,0 STARLINK-4071,1 52671U 22053R   24223.15603929  .00000403  00000-0  43433-4 0  9999,2 52671  53.2157 222.2812 0001375  97.7008 262.4141 15.08842630124006,6917.872,95.437,540.689,538.786,0.0
52671.0,STARLINK-4071,PAYLOAD,2024-08-11 08:21:38,15.08841405,0.0001468,53.2166,216.9312,98.582,261.5338,9.4987e-05,1.224e-05,0.0,0 STARLINK-4071,1 52671U 22053R   24224.34836063  .00001224  00000-0  94987-4 0  9990,2 52671  53.2166 216.9312 0001468  98.5820 261.5338 15.08841405123764,6917.876,95.437,540.757,538.726,0.0
52671.0,STARLINK-4071,PAYLOAD,2024-08-11 16:18:34,15.08837935,0.0001407,53.2168,215.4438,90.9811,269.1343,5.1209e-05,5.27e-06,0.0,0 STARLINK-4071,1 52671U 22053R   24224.67956453  .00000527  00000-0  51209-4 0  9997,2 52671  53.2168 215.4438 0001407  90.9811 269.1343 15.08837935124234,6917.887,95.438,540.725,538.778,0.0
52671.0,STARLINK-4071,PAYLOAD,2024-08-12 05:01:39,15.08839143,0.0001677,53.2177,213.0671,102.6468,257.4712,-1.5424e-05,-5.34e-06,0.0,0 STARLINK-4071,1 52671U 22053R   24225.20948668 -.00000534  00000-0 -15424-4 0  9995,2 52671  53.2177 213.0671 0001677 102.6468 257.4712 15.08839143123899,6917.883,95.438,540.908,538.588,0.0
52671.0,STARLINK-4071,PAYLOAD,2024-08-12 08:12:24,15.08851591,0.0001695,53.2172,212.4712,118.6228,241.4935,0.00011637,1.565e-05,0.0,0 STARLINK-4071,1 52671U 22053R   24225.34195431  .00001565  00000-0  11637-3 0  9996,2 52671  53.2172 212.4712 0001695 118.6228 241.4935 15.08851591123918,6917.845,95.437,540.883,538.537,0.0
52671.0,STARLINK-4071,PAYLOAD,2024-08-12 16:09:18,15.08874744,8.62e-05,53.2169,210.9819,110.6391,249.4694,0.00033215,5.007e-05,0.0,0 STARLINK-4071,1 52671U 22053R   24225.67312660  .00005007  00000-0  33215-3 0  9998,2 52671  53.2169 210.9819 0000862 110.6391 249.4694 15.08874744123963,6917.774,95.435,540.236,539.043,0.0
52671.0,STARLINK-4071,PAYLOAD,2024-08-13 04:52:25,15.08842383,0.000123,53.2179,208.6058,105.5387,254.5741,3.2607e-05,2.31e-06,0.0,0 STARLINK-4071,1 52671U 22053R   24226.20307318  .00000231  00000-0  32607-4 0  9991,2 52671  53.2179 208.6058 0001230 105.5387 254.5741 15.08842383124045,6917.873,95.437,540.589,538.887,0.0
52671.0,STARLINK-4071,PAYLOAD,2024-08-13 08:03:14,15.08803872,0.00013,53.2176,208.011,73.8183,286.2953,-0.00029216,-4.93e-05,0.0,0 STARLINK-4071,1 52671U 22053R   24226.33558855 -.00004930  00000-0 -29216-3 0  9992,2 52671  53.2176 208.0110 0001300  73.8183 286.2953 15.08803872124063,6917.991,95.44,540.755,538.956,0.0
52671.0,STARLINK-4071,PAYLOAD,2024-08-13 22:21:43,15.087996,9.77e-05,53.2163,205.3308,75.2979,284.8121,-0.00015973,-2.826e-05,0.0,0 STARLINK-4071,1 52671U 22053R   24226.93175650 -.00002826  00000-0 -15973-3 0  9993,2 52671  53.2163 205.3308 0000977  75.2979 284.8121 15.08799600124576,6918.004,95.44,540.545,539.193,0.0
52671.0,STARLINK-4071,PAYLOAD,2024-08-14 04:43:16,15.08811594,0.0001107,53.2155,204.143,79.5809,280.5308,-0.00017475,-3.066e-05,0.0,0 STARLINK-4071,1 52671U 22053R   24227.19671520 -.00003066  00000-0 -17475-3 0  9995,2 52671  53.2155 204.1430 0001107  79.5809 280.5308 15.08811594124190,6917.967,95.439,540.598,539.066,0.0
52671.0,STARLINK-4071,PAYLOAD,2024-08-14 15:50:57,15.08830928,0.000115,53.2178,202.0566,107.9888,252.1229,-0.00019419,-3.376e-05,0.0,0 STARLINK-4071,1 52671U 22053R   24227.66038713 -.00003376  00000-0 -19419-3 0  9992,2 52671  53.2178 202.0566 0001150 107.9888 252.1229 15.08830928124260,6917.908,95.438,540.569,538.978,0.0
52671.0,STARLINK-4071,PAYLOAD,2024-08-15 04:34:01,15.08820425,9.32e-05,53.2156,199.6824,82.376,277.7338,0.00039694,6.032e-05,0.0,0 STARLINK-4071,1 52671U 22053R   24228.19029581  .00006032  00000-0  39694-3 0  9991,2 52671  53.2156 199.6824 0000932  82.3760 277.7338 15.08820425124340,6917.94,95.439,540.45,539.16,0.0
52671.0,STARLINK-4071,PAYLOAD,2024-08-15 15:41:43,15.08829682,9.94e-05,53.2164,197.6006,83.6131,276.4974,0.00042304,6.449e-05,0.0,0 STARLINK-4071,1 52671U 22053R   24228.65397476  .00006449  00000-0  42304-3 0  9997,2 52671  53.2164 197.6006 0000994  83.6131 276.4974 15.08829682124833,6917.912,95.438,540.465,539.089,0.0
52671.0,STARLINK-4071,PAYLOAD,2024-08-16 04:24:47,15.08846916,0.0001062,53.2164,195.2209,88.4087,271.7027,0.00039754,6.046e-05,0.0,0 STARLINK-4071,1 52671U 22053R   24229.18388826  .00006046  00000-0  39754-3 0  9993,2 52671  53.2164 195.2209 0001062  88.4087 271.7027 15.08846916124490,6917.859,95.437,540.459,538.99,0.0
52671.0,STARLINK-4071,PAYLOAD,2024-08-17 04:15:35,15.08853014,0.0001079,53.2163,190.7609,89.2072,270.9044,3.6852e-05,2.99e-06,0.0,0 STARLINK-4071,1 52671U 22053R   24230.17749157  .00000299  00000-0  36852-4 0  9993,2 52671  53.2163 190.7609 0001079  89.2072 270.9044 15.08853014124648,6917.841,95.437,540.452,538.959,0.0
52671.0,STARLINK-4071,PAYLOAD,2024-08-18 04:06:22,15.08848522,0.0001257,53.2166,186.301,93.2156,266.898,-7.3591e-05,-1.459e-05,0.0,0 STARLINK-4071,1 52671U 22053R   24231.17109112 -.00001459  00000-0 -73591-4 0  9997,2 52671  53.2166 186.3010 0001257  93.2156 266.8980 15.08848522124791,6917.854,95.437,540.589,538.85,0.0
52671.0,STARLINK-4071,PAYLOAD,2024-08-18 07:17:08,15.08844008,0.0001377,53.2168,185.7047,110.085,250.029,4.698e-08,-2.87e-06,0.0,0 STARLINK-4071,1 52671U 22053R   24231.30357067 -.00000287  00000-0  46980-7 0  9998,2 52671  53.2168 185.7047 0001377 110.0850 250.0290 15.08844008125232,6917.868,95.437,540.686,538.781,0.0
52671.0,STARLINK-4071,PAYLOAD,2024-08-19 05:32:31,15.08846595,0.0001247,53.2165,181.5431,91.2431,268.8704,9.5154e-05,1.227e-05,0.0,0 STARLINK-4071,1 52671U 22053R   24232.23092555  .00001227  00000-0  95154-4 0  9997,2 52671  53.2165 181.5431 0001247  91.2431 268.8704 15.08846595124959,6917.86,95.437,540.588,538.863,0.0
52671.0,STARLINK-4071,PAYLOAD,2024-08-19 13:29:28,15.08838698,0.0001246,53.2168,180.0558,87.8799,272.2336,8.8004e-05,1.113e-05,0.0,0 STARLINK-4071,1 52671U 22053R   24232.56213054  .00001113  00000-0  88004-4 0  9992,2 52671  53.2168 180.0558 0001246  87.8799 272.2336 15.08838698125421,6917.884,95.438,540.611,538.887,0.0
52671.0,STARLINK-4071,PAYLOAD,2024-08-20 05:23:20,15.08835408,0.0001539,53.2172,177.0817,88.5188,271.5981,1.9386e-05,2.1e-07,0.0,0 STARLINK-4071,1 52671U 22053R   24233.22453869  .00000021  00000-0  19386-4 0  9990,2 52671  53.2172 177.0817 0001539  88.5188 271.5981 15.08835408125104,6917.894,95.438,540.824,538.695,0.0
52671.0,STARLINK-4071,PAYLOAD,2024-08-21 03:38:43,15.08854022,0.0001457,53.2169,172.9195,86.5973,273.5186,9.2781e-05,1.189e-05,0.0,0 STARLINK-4071,1 52671U 22053R   24234.15188659  .00001189  00000-0  92781-4 0  9991,2 52671  53.2169 172.9195 0001457  86.5973 273.5186 15.08854022125249,6917.838,95.437,540.71,538.695,0.0
52671.0,STARLINK-4071,PAYLOAD,2024-08-21 05:14:06,15.08855561,0.0001463,53.2171,172.6221,87.1625,272.9535,0.00011119,1.483e-05,0.0,0 STARLINK-4071,1 52671U 22053R   24234.21812534  .00001483  00000-0  11119-3 0  9996,2 52671  53.2171 172.6221 0001463  87.1625 272.9535 15.08855561125674,6917.833,95.437,540.71,538.686,0.0
52671.0,STARLINK-4071,PAYLOAD,2024-08-21 19:32:35,15.08832747,0.0001627,53.2167,169.9458,90.4878,269.6301,0.0001276,1.743e-05,0.0,0 STARLINK-4071,1 52671U 22053R   24234.81430034  .00001743  00000-0  12760-3 0  9995,2 52671  53.2167 169.9458 0001627  90.4878 269.6301 15.08832747125348,6917.903,95.438,540.893,538.642,0.0
